SatCatId,ObjectName,LaunchYear,OrbitalPeriod,LaunchMass,StatusCode,Inclination,Status,UcsData,OrbitClassEstimated,LaunchSiteCountry,Owner,UseType,Purpose,LaunchVehicleClass,TLE1,TLE2,MeanMotion,Eccentricity,OrbitClass
60384,QIANFAN-6,2024,103.53,-1.0,+,88.99,Active,0,LEO,PRC,China,Unknown,Unknown,Unknown,1 60384U 24140F   24320.48290138  .00000179  00000+0  13262-3 0  9991,2 60384  88.9876 339.6253 0012296 244.9717 115.0180 13.90890968 14378,13.90890968,0.0012296,LEO
60385,QIANFAN-7,2024,100.91,-1.0,+,88.99,Active,0,LEO,PRC,China,Unknown,Unknown,Unknown,1 60385U 24140G   24320.52242930  .00000731  00000+0  29423-3 0  9994,2 60385  88.9889 339.5026 0012993 246.3926 113.5904 14.27043115 14442,14.27043115,0.0012993,LEO
60386,QIANFAN-8,2024,103.87,-1.0,+,88.99,Active,0,LEO,PRC,China,Unknown,Unknown,Unknown,1 60386U 24140H   24320.48573301  .00000144  00000+0  11326-3 0  9990,2 60386  88.9860 339.7522 0012048 257.9640 102.0181 13.86312882 14283,13.86312882,0.0012048,LEO
60387,QIANFAN-9,2024,104.14,-1.0,+,88.99,Active,0,LEO,PRC,China,Unknown,Unknown,Unknown,1 60387U 24140J   24320.46294528  .00000157  00000+0  13276-3 0  9990,2 60387  88.9884 339.7535 0012930 265.3128  94.6564 13.82748934 14309,13.82748934,0.001293,LEO
60388,QIANFAN-10,2024,102.15,-1.0,+,88.99,Active,0,LEO,PRC,China,Unknown,Unknown,Unknown,1 60388U 24140K   24320.54271923  .00000307  00000+0  16810-3 0  9998,2 60388  88.9893 339.5815 0015270 246.2711 113.6872 14.09390174 14151,14.09390174,0.001527,LEO
60389,QIANFAN-11,2024,106.05,-1.0,+,88.98,Active,0,LEO,PRC,China,Unknown,Unknown,Unknown,1 60389U 24140L   24320.49048584  .00000092  00000+0  11088-3 0  9991,2 60389  88.9823 339.8283 0012210 249.0455 110.9394 13.57903001 14244,13.57903001,0.001221,LEO
60390,QIANFAN-12,2024,105.51,-1.0,+,88.98,Active,0,LEO,PRC,China,Unknown,Unknown,Unknown,1 60390U 24140M   24320.53027267  .00000118  00000+0  13042-3 0  9994,2 60390  88.9865 339.7013 0011532 259.6198 100.3662 13.64843693 14282,13.64843693,0.0011532,LEO
60391,QIANFAN-13,2024,105.75,-1.0,+,88.99,Active,0,LEO,PRC,China,Unknown,Unknown,Unknown,1 60391U 24140N   24320.55889351  .00000117  00000+0  13643-3 0  9993,2 60391  88.9878 339.7462 0011420 264.9083  95.0771 13.61725412 14313,13.61725412,0.001142,LEO
60392,QIANFAN-14,2024,105.47,-1.0,+,88.99,Active,0,LEO,PRC,China,Unknown,Unknown,Unknown,1 60392U 24140P   24320.45901404  .00000111  00000+0  12098-3 0  9994,2 60392  88.9880 339.7435 0014009 268.0984  91.8571 13.65325315 14301,13.65325315,0.0014009,LEO
60393,QIANFAN-15,2024,104.27,-1.0,+,88.99,Active,0,LEO,PRC,China,Unknown,Unknown,Unknown,1 60393U 24140Q   24320.44389594  .00000163  00000+0  14221-3 0  9991,2 60393  88.9889 339.6741 0009937 255.2341 104.7726 13.81034643 14258,13.81034643,0.0009937,LEO
60394,QIANFAN-16,2024,104.62,-1.0,+,88.99,Active,0,LEO,PRC,China,Unknown,Unknown,Unknown,1 60394U 24140R   24320.50532629  .00000131  00000+0  12317-3 0  9997,2 60394  88.9883 339.7404 0012985 271.8967  88.0710 13.75339065 14194,13.75339065,0.0012985,LEO
60395,QIANFAN-17,2024,105.36,-1.0,+,88.99,Active,0,LEO,PRC,China,Unknown,Unknown,Unknown,1 60395U 24140S   24320.55243358  .00000100  00000+0  10884-3 0  9994,2 60395  88.9900 339.7327 0012190 258.3407 101.6384 13.64668185 15169,13.64668185,0.001219,LEO
60396,QIANFAN-18,2024,102.79,-1.0,+,88.99,Active,0,LEO,PRC,China,Unknown,Unknown,Unknown,1 60396U 24140T   24320.52746055  .00000191  00000+0  11892-3 0  9994,2 60396  88.9870 339.6128 0012113 246.8986 113.0917 14.00647775 14388,14.00647775,0.0012113,LEO
60398,STARLINK-11228 [DTC],2024,91.73,-1.0,+,53.16,Active,0,LEO,USA,USA,Unknown,Unknown,Unknown,1 60398U 24141A   24320.20198511  .00001916  00000+0  20641-4 0  9999,2 60398  53.1588 289.9862 0001299  79.7202 280.3962 15.69745211 16389,15.69745211,0.0001299,LEO
60399,STARLINK-11182 [DTC],2024,91.74,-1.0,+,53.16,Active,0,LEO,USA,USA,Unknown,Unknown,Unknown,1 60399U 24141B   24320.18729000 -.00000460  00000+0  10694-5 0  9992,2 60399  53.1589 289.8887 0001406  95.9692 264.1486 15.69715291 16432,15.69715291,0.0001406,LEO
60400,STARLINK-11234 [DTC],2024,91.74,-1.0,+,53.16,Active,0,LEO,USA,USA,Unknown,Unknown,Unknown,1 60400U 24141C   24320.30971957 -.00000237  00000+0  29012-5 0  9995,2 60400  53.1590 289.2244 0001112  83.1999 276.9145 15.69721703 16406,15.69721703,0.0001112,LEO
60401,STARLINK-11232 [DTC],2024,91.74,-1.0,+,53.16,Active,0,LEO,USA,USA,Unknown,Unknown,Unknown,1 60401U 24141D   24320.30481336 -.00002512  00000+0 -15862-4 0  9999,2 60401  53.1590 289.1974 0001649  51.6115 308.5051 15.69729139 16455,15.69729139,0.0001649,LEO
60402,STARLINK-11139 [DTC],2024,91.74,-1.0,+,53.16,Active,0,LEO,USA,USA,Unknown,Unknown,Unknown,1 60402U 24141E   24320.29989949 -.00000883  00000+0 -24250-5 0  9992,2 60402  53.1591 289.1599 0001411  90.7452 269.3728 15.69736679 16457,15.69736679,0.0001411,LEO
60403,STARLINK-11158 [DTC],2024,91.74,-1.0,+,53.16,Active,0,LEO,USA,USA,Unknown,Unknown,Unknown,1 60403U 24141F   24320.16777208 -.00001372  00000+0 -64601-5 0  9990,2 60403  53.1579 290.4898 0001275  66.3239 293.7913 15.69714247 16376,15.69714247,0.0001275,LEO
60404,STARLINK-11199 [DTC],2024,91.74,-1.0,+,53.16,Active,0,LEO,USA,USA,Unknown,Unknown,Unknown,1 60404U 24141G   24320.35387373 -.00000953  00000+0 -30081-5 0  9991,2 60404  53.1586 289.5169 0001129 101.0390 259.0755 15.69706921 16456,15.69706921,0.0001129,LEO
60405,STARLINK-11081 [DTC],2024,91.74,-1.0,+,53.16,Active,0,LEO,USA,USA,Unknown,Unknown,Unknown,1 60405U 24141H   24320.22162516  .00002904  00000+0  28809-4 0  9998,2 60405  53.1582 290.1137 0001562 115.9909 244.1270 15.69720680 16384,15.6972068,0.0001562,LEO
60406,STARLINK-11150 [DTC],2024,91.74,-1.0,+,53.16,Active,0,LEO,USA,USA,Unknown,Unknown,Unknown,1 60406U 24141J   24320.34405212  .00001627  00000+0  18279-4 0  9996,2 60406  53.1592 289.4541 0001722  50.9356 309.1815 15.69726356 16459,15.69726356,0.0001722,LEO
60407,STARLINK-11136 [DTC],2024,91.74,-1.0,+,53.16,Active,0,LEO,USA,USA,Unknown,Unknown,Unknown,1 60407U 24141K   24320.21180215  .00002479  00000+0  25294-4 0  9997,2 60407  53.1594 290.0441 0001422  95.3684 264.7496 15.69732423 16388,15.69732423,0.0001422,LEO
60408,STARLINK-11196 [DTC],2024,91.74,-1.0,+,53.16,Active,0,LEO,USA,USA,Unknown,Unknown,Unknown,1 60408U 24141L   24320.20690906  .00001096  00000+0  13905-4 0  9990,2 60408  53.1601 290.0141 0001604  81.9187 278.2013 15.69718954 16430,15.69718954,0.0001604,LEO
60409,STARLINK-11174 [DTC],2024,91.74,-1.0,+,53.16,Active,0,LEO,USA,USA,Unknown,Unknown,Unknown,1 60409U 24141M   24320.32445873 -.00004505  00000+0 -32372-4 0  9994,2 60409  53.1593 289.3185 0001295  79.3994 280.7169 15.69691161 16400,15.69691161,0.0001295,LEO
60410,STARLINK-11191 [DTC],2024,91.74,-1.0,+,53.16,Active,0,LEO,USA,USA,Unknown,Unknown,Unknown,1 60410U 24141N   24320.19219007 -.00001571  00000+0 -80997-5 0  9996,2 60410  53.1589 289.9120 0001501 106.1926 253.9257 15.69724499 16430,15.69724499,0.0001501,LEO
60411,STARLINK-32244,2024,94.11,-1.0,+,53.16,Active,0,LEO,USA,USA,Unknown,Unknown,Unknown,1 60411U 24141P   24320.38346868  .00000924  00000+0  43346-4 0  9999,2 60411  53.1615 309.1316 0001446  88.8901 271.2265 15.30194089 16199,15.30194089,0.0001446,LEO
60412,STARLINK-32186,2024,94.11,-1.0,+,53.16,Active,0,LEO,USA,USA,Unknown,Unknown,Unknown,1 60412U 24141Q   24320.24967295 -.00000028  00000+0  11198-4 0  9994,2 60412  53.1618 309.7216 0001283  80.7059 279.4087 15.30197458 16119,15.30197458,0.0001283,LEO
60413,STARLINK-32178,2024,94.11,-1.0,+,53.16,Active,0,LEO,USA,USA,Unknown,Unknown,Unknown,1 60413U 24141R   24320.37080247  .00002238  00000+0  87711-4 0  9990,2 60413  53.1620 309.0503 0001525 109.1096 251.0070 15.30190469 16136,15.30190469,0.0001525,LEO
60414,STARLINK-32234,2024,94.11,-1.0,+,53.16,Active,0,LEO,USA,USA,Unknown,Unknown,Unknown,1 60414U 24141S   24320.37714188  .00002528  00000+0  97449-4 0  9990,2 60414  53.1627 309.0924 0001508 100.5187 259.5984 15.30201635 16199,15.30201635,0.0001508,LEO
60415,STARLINK-32265,2024,94.11,-1.0,+,53.16,Active,0,LEO,USA,USA,Unknown,Unknown,Unknown,1 60415U 24141T   24320.37397004  .00001405  00000+0  59548-4 0  9996,2 60415  53.1610 309.0748 0001353  89.8702 270.2453 15.30200203 16197,15.30200203,0.0001353,LEO
60416,STARLINK-32197,2024,93.53,-1.0,+,53.16,Active,0,LEO,USA,USA,Unknown,Unknown,Unknown,1 60416U 24141U   24320.34592263  .00001233  00000+0  40815-4 0  9994,2 60416  53.1623 303.9087 0001449 103.6917 256.4249 15.39621654 16207,15.39621654,0.0001449,LEO
60417,STARLINK-32255,2024,94.11,-1.0,+,53.16,Active,0,LEO,USA,USA,Unknown,Unknown,Unknown,1 60417U 24141V   24320.36446934 -.00000541  00000+0 -61450-5 0  9992,2 60417  53.1618 309.0120 0001583  99.8426 260.2753 15.30202199 16198,15.30202199,0.0001583,LEO
60418,STARLINK-32236,2024,94.1,-1.0,+,53.16,Active,0,LEO,USA,USA,Unknown,Unknown,Unknown,1 60418U 24141W   24320.29493136 -.00003911  00000+0 -11996-3 0  9993,2 60418  53.1605 309.2937 0001290  84.7122 275.4026 15.30207701 16188,15.30207701,0.000129,LEO
60419,CAPELLA-13 (ACADIA-3),2024,96.79,-1.0,+,53.01,Active,0,LEO,New Zealand,USA,Unknown,Unknown,Unknown,1 60419U 24142A   24320.58339468  .00014141  00000+0  15601-2 0  9995,2 60419  53.0088  63.1014 0001417  74.9612 285.1525 14.87703444 14288,14.87703444,0.0001417,LEO
60422,ASBM-1,2024,957.28,-1.0,+,62.33,Active,0,MEO,USA,Norway,Unknown,Unknown,Unknown,1 60422U 24143A   24318.48082507  .00000010  00000+0  00000+0 0  9999,2 60422  62.3349  67.4495 5340400 268.1111  33.0943  1.50426251  2880,1.50426251,0.53404,MEO
60423,ASBM-2,2024,957.3,-1.0,+,62.37,Active,0,MEO,USA,Norway,Unknown,Unknown,Unknown,1 60423U 24143B   24317.48403809  .00000024  00000+0  00000+0 0  9996,2 60423  62.3718  67.5506 5336506 268.1119  33.1347  1.50423448  2834,1.50423448,0.5336506,MEO
